OSCAR 7 (AO-7)          
1 07530U 74089B   19311.19625188 -.00000029  00000-0  10067-3 0  9997
2 07530 101.7655 277.5029 0012515  73.8409 356.8900 12.53640619 58257
UOSAT 2 (UO-11)         
1 14781U 84021B   19310.50526721  .00000090  00000-0  17154-4 0  9999
2 14781  97.6030 328.5011 0007708 208.3653 151.7142 14.83117851919635
LUSAT (LO-19)           
1 20442U 90005G   19311.06861037  .00000014  00000-0  21335-4 0  9995
2 20442  98.6629 252.9140 0012898  92.3878 267.8783 14.32937174556628
ITAMSAT (IO-26)         
1 22826U 93061D   19311.22058524  .00000006  00000-0  20157-4 0  9997
2 22826  98.9090 303.1398 0008022 299.1327  60.9051 14.30404669362389
RADIO ROSTO (RS-15)     
1 23439U 94085A   19310.79993329 -.00000042  00000-0  24322-4 0  9996
2 23439  64.8159 247.9306 0145352  85.6248 276.1267 11.27568543 23806
JAS-2 (FO-29)           
1 24278U 96046B   19310.63487393 -.00000018  00000-0  20314-4 0  9999
2 24278  98.5597  85.0685 0349556 234.5564 122.2478 13.53094526146860
TECHSAT 1B (GO-32)      
1 25397U 98043D   19310.46216367 -.00000005  00000-0  17182-4 0  9998
2 25397  98.7016 248.9712 0001585  33.0414 327.0863 14.23673703107908
ISS (ZARYA)             
1 25544U 98067A   19311.39056523  .00000757  00000-0  21099-4 0  9992
2 25544  51.6451  11.2360 0005828 238.9618 210.3569 15.50258526197470
PCSAT (NO-44)           
1 26931U 01043C   19311.42607578 -.00000011  00000-0  27517-4 0  9992
2 26931  67.0525 357.9347 0007478 266.3036  93.7210 14.30557746945246
SAUDISAT 1C (SO-50)     
1 27607U 02058C   19310.58462297 -.00000008  00000-0  19671-4 0  9991
2 27607  64.5554 338.8310 0073310 229.0423 130.4321 14.75586341907694
CUTE-1 (CO-55)          
1 27844U 03031E   19310.71225181  .00000056  00000-0  44918-4 0  9994
2 27844  98.6850 316.8222 0009597 349.3739  10.7235 14.22203614848334
CUBESAT XI-IV (CO-57)   
1 27848U 03031J   19311.02615507  .00000047  00000-0  41093-4 0  9999
2 27848  98.6924 317.6594 0009692   0.5433 359.5753 14.21795531848224
MOZHAYETS 4 (RS-22)     
1 27939U 03042A   19311.39275047  .00000130  00000-0  31980-4 0  9990
2 27939  98.0605  84.6195 0012438 345.3158  14.7695 14.66815324861311
CUBESAT XI-V            
1 28895U 05043F   19310.60670680  .00000124  00000-0  32618-4 0  9992
2 28895  97.9796  88.6814 0015503 266.4527  93.4902 14.63707421748092
CUTE-1.7+APD II (CO-65) 
1 32785U 08021C   19310.73552524  .00000217  00000-0  28973-4 0  9996
2 32785  97.5577 303.8561 0013754 149.5767 210.6252 14.88368993624595
DELFI-C3 (DO-64)        
1 32789U 08021G   19310.44288468  .00000761  00000-0  54446-4 0  9999
2 32789  97.4490 355.7604 0012217  11.5549 348.5958 15.07232135628166
SEEDS II (CO-66)        
1 32791U 08021J   19310.64996112  .00000204  00000-0  26012-4 0  9996
2 32791  97.5323 309.8681 0014597 124.7144 235.5453 14.90903440625034
YUBILEINY (RS-30)       
1 32953U 08025A   19311.37665554  .00000020  00000-0  75656-4 0  9998
2 32953  82.5055  56.6414 0019784 177.7465 182.3708 12.43092036519915
KKS-1 (KISEKI)          
1 33499U 09002H   19311.41065092  .00000090  00000-0  21233-4 0  9995
2 33499  98.3378 154.5741 0010272 112.3880 247.8418 14.75476534580126
SWISSCUBE               
1 35932U 09051B   19311.40847567  .00000137  00000-0  41878-4 0  9996
2 35932  98.5994 121.6525 0008697  91.2551 268.9642 14.56326428537400
BEESAT-1                
1 35933U 09051C   19310.71598754  .00000124  00000-0  39081-4 0  9990
2 35933  98.6010 122.7537 0006884 104.1600 256.0362 14.56410112537413
ITUPSAT1                
1 35935U 09051E   19310.44276882  .00000101  00000-0  34368-4 0  9995
2 35935  98.6119 122.6983 0009203 103.5175 256.7047 14.55564365537110
XIWANG-1 (HOPE-1)       
1 36122U 09072B   19311.10434331 -.00000050  00000-0 -19651-4 0  9999
2 36122 100.0796 306.8691 0007658  23.8904 336.2578 13.16351719475483
JUGNU                   
1 37839U 11058B   19310.79217073  .00000295  00000-0  15746-4 0  9998
2 37839  19.9599 199.1207 0018993  82.9843 328.4116 14.12663514417120
SRMSAT                  
1 37841U 11058D   19310.21025444  .00000310  00000-0  25083-4 0  9990
2 37841  19.9719 262.3344 0011646 300.5857 187.9315 14.10642502416551
M-CUBED & EXP-1 PRIME   
1 37855U 11061F   19310.62169694  .00001829  00000-0  98243-4 0  9994
2 37855 101.7202 278.5981 0172801  18.9686 341.7858 15.05738481437989
STRAND-1                
1 39090U 13009E   19311.04272029  .00000039  00000-0  28819-4 0  9999
2 39090  98.4734 154.5438 0008279 224.5688 135.4832 14.35103987350666
SOMP                    
1 39134U 13015E   19310.72481321  .00001360  00000-0  70388-4 0  9992
2 39134  64.8626 283.4213 0037389 280.4807  79.2108 15.20470652361656
BEESAT-3                
1 39135U 13015F   19311.42642214  .00001018  00000-0  59317-4 0  9990
2 39135  64.8668 301.4604 0039229 285.7894  73.8908 15.17710137361757
BEESAT-2                
1 39136U 13015G   19311.38571268  .00001037  00000-0  61563-4 0  9993
2 39136  64.8679 305.8277 0030017 290.6233  69.1674 15.17124846361666
ZACUBE-1 (TSHEPISOSAT)  
1 39417U 13066B   19310.49380323  .00000201  00000-0  31712-4 0  9997
2 39417  97.5624 316.0807 0057530 292.9401  66.5747 14.81173342321882
GOMX-1                  
1 39430U 13066Q   19311.42196259  .00000164  00000-0  38620-4 0  9992
2 39430  97.7632 258.7582 0151211 166.8797 193.6410 14.59304706317270
CUBEBUG-2 (LO-74)       
1 39440U 13066AA  19310.77021510  .00000243  00000-0  40732-4 0  9992
2 39440  97.6118 300.9444 0079911 347.7387  12.1877 14.75911401319589
FUNCUBE-1 (AO-73)       
1 39444U 13066AE  19310.75374522  .00000259  00000-0  38318-4 0  9992
2 39444  97.5590 318.4021 0056588 285.1416  74.3543 14.82004300320237
UWE-3                   
1 39446U 13066AG  19310.53266844  .00000223  00000-0  36279-4 0  9992
2 39446  97.5864 307.8739 0069066 321.4594  38.1697 14.78445946320077
SPROUT                  
1 39770U 14029E   19311.30731374  .00000540  00000-0  65683-4 0  9996
2 39770  97.8896  53.7357 0008821 348.5221  11.5791 14.87490441295887
UNISAT-6                
1 40012U 14033C   19311.14567389  .00000178  00000-0  33848-4 0  9992
2 40012  97.7358 171.5139 0058503   2.8040 357.3486 14.74028582289523
DUCHIFAT-1              
1 40021U 14033M   19311.37949950  .00000296  00000-0  35977-4 0  9991
2 40021  97.9274 236.4561 0011822 307.8276  52.1871 14.90728327292652
QB50P1                  
1 40025U 14033R   19310.75640705  .00000225  00000-0  29945-4 0  9992
2 40025  97.9058 230.2006 0011562 321.0505  38.9878 14.89014130291809
NUDT-PHONESAT           
1 40900U 15049B   19311.30391803  .00001779  00000-0  77957-4 0  9997
2 40900  97.4369 319.2820 0014129  52.5313  68.1312 15.23237824229218
ZDPS 2A                 
1 40901U 15049C   19311.35679630  .00000775  00000-0  41467-4 0  9992
2 40901  97.4623 315.1619 0015148  71.7995  40.3845 15.17913881228729
ZDPS 2B                 
1 40902U 15049D   19311.39591726  .00001147  00000-0  59946-4 0  9991
2 40902  97.4582 312.5821 0015089  69.5752  38.1883 15.17795852228701
XW-2A                   
1 40903U 15049E   19311.36576507  .00001661  00000-0  40519-4 0  9996
2 40903  97.3213 354.8316 0013428   0.5689  54.8677 15.42285471232080
KAITUO 1A               
1 40904U 15049F   19311.44689091  .00000484  00000-0  28984-4 0  9993
2 40904  97.4718 311.0712 0016304  77.7309  81.1171 15.15490349228469
2015-049G               
1 40905U 15049G   19311.35482028  .00000162  00000-0  12368-4 0  9997
2 40905  97.4770 308.3869 0017326  73.7493  33.2949 15.14380860228315
XW-2C                   
1 40906U 15049H   19311.48286957  .00000718  00000-0  40977-4 0  9999
2 40906  97.4733 311.2571 0016420  69.9787  81.4173 15.15812872228470
XW-2D                   
1 40907U 15049J   19311.36838438  .00000376  00000-0  22965-4 0  9991
2 40907  97.4703 310.8265 0015703  67.5368  39.7092 15.16010312228471
LILACSAT-2              
1 40908U 15049K   19311.45463469  .00000164  00000-0  12662-4 0  9998
2 40908  97.4843 309.5723 0017523  74.2208  81.4934 15.13883573228250
XW-2F                   
1 40910U 15049M   19311.39150713  .00000984  00000-0  52296-4 0  9996
2 40910  97.4660 313.0696 0016306  60.1163  45.5773 15.17516505228503
XW-2B                   
1 40911U 15049N   19311.40810350  .00000808  00000-0  45486-4 0  9997
2 40911  97.4729 311.5393 0015625  68.4482  41.2888 15.15942275228375
KAITUO 1B               
1 40912U 15049P   19311.47846618  .00001115  00000-0  55068-4 0  9990
2 40912  97.4510 317.0198 0016113  42.4944 112.2705 15.19856647228846
TIANWANG 1C (TW-1C)     
1 40926U 15051B   19311.23387882  .00012299  00000-0  16130-3 0  9996
2 40926  97.1190 357.3417 0006942 189.8207 242.9293 15.58666714232182
TIANWANG 1A (TW-1A)     
1 40928U 15051D   19311.37521483  .00002384  00000-0  58831-4 0  9999
2 40928  97.1337 339.5054 0009006 280.9734 205.1722 15.41477714230995
LAPAN-A2                
1 40931U 15052B   19308.14990593  .00000506  00000-0 -18695-4 0  9996
2 40931   5.9899 149.2330 0013523 313.9745  46.0045 14.76617760221769
E-ST@R-II               
1 41459U 16025D   19311.23189305  .00000472  00000-0  28677-4 0  9990
2 41459  98.0975  44.8549 0165524 242.3319 116.1066 15.05760302193849
AAUSAT 4                
1 41460U 16025E   19311.22513723  .00001650  00000-0  86124-4 0  9996
2 41460  98.0941  46.4612 0155517 233.6194 125.0680 15.07777871193996
NUSAT-1 (FRESCO)        
1 41557U 16033B   19311.42671845  .00001248  00000-0  49017-4 0  9997
2 41557  97.4141  38.0923 0014523 151.3412 208.8628 15.27508928191728
BEESAT-4                
1 41619U 16040W   19310.42204218  .00001305  00000-0  57690-4 0  9999
2 41619  97.3519   9.9212 0009749 244.7972 115.2255 15.23435751175284
CAS-2T & KS-1Q          
1 41847U 16066G   19311.13710649  .00000037  00000-0  15854-4 0  9996
2 41847  98.6893 354.0050 0366091 173.8868 186.6974 14.38017195157320
NAYIF-1 (EO-88)         
1 42017U 17008BX  19310.64408871  .00001377  00000-0  56556-4 0  9991
2 42017  97.3888  16.1958 0007240  44.3694 315.8124 15.25866799151416
MAX VALIER SAT          
1 42778U 17036P   19311.39675946  .00000910  00000-0  42496-4 0  9998
2 42778  97.3380   5.8241 0014031  87.9380 272.3463 15.22232845131796
RADFXSAT (FOX-1B)       
1 43017U 17073E   19311.30492195  .00000767  00000-0  64472-4 0  9998
2 43017  97.7221 227.1193 0259055  57.4204 305.1738 14.78680335106186
FOX-1D (AO-92)          
1 43137U 18004AC  19311.23067779  .00000992  00000-0  44263-4 0  9990
2 43137  97.4735  18.6192 0010770 116.0635 244.1712 15.23695500101042
ES'HAIL 2               
1 43700U 18090A   19311.17480185  .00000144  00000-0  00000+0 0  9999
2 43700   0.0155 268.7072 0001497 332.6491 253.4896  1.00273581  3713
FOX-1CLIFF (AO-95)      
1 43770U 18099N   19310.67852854  .00000691  00000-0  68646-4 0  9997
2 43770  97.7328  20.6527 0013771 218.8325 141.1907 14.94844293 50487
ITASAT 1                
1 43786U 18099AE  19311.32999952  .00000215  00000-0  24772-4 0  9992
2 43786  97.7339  21.5529 0014599 211.0180 149.0180 14.95202827 50595
JY1SAT (JO-97)          
1 43803U 18099AX  19311.43557962  .00000153  00000-0  19059-4 0  9998
2 43803  97.7302  21.5356 0014411 211.0975 148.9394 14.95353751 50608
PSAT2 (NO-104)          
1 44354U 19036R   19310.57216541  .00007919  00000-0  11863-3 0  9992
2 44354  28.5308  46.2803 0381704  87.5497 276.8726 14.99148911 20135
BRICSAT2 (NO-103)       
1 44355U 19036S   19310.57451938  .00013849  00000-0  20872-3 0  9993
2 44355  28.5311  45.3346 0375002  89.1193 275.2334 15.00776599 20148
JAISAT-1                
1 44419U 19038F   19310.69214310  .00000760  00000-0  47277-4 0  9997
2 44419  97.5074 270.4222 0021692 177.7548 182.3784 15.12410961 18770
